,Good,DBA NAME,OWNERSHIP TYPE,ADDRESS,CITY,ZIP,STATE,BUSINESS PHONE,OWNER NAME,CREATION DT,NAICS,ACTIVITY DESC
54,y,L3 APPLIED TECHNOLOGIES INC,CORP,10180 BARNES CANYON RD SUITE 100,SAN DIEGO,92121-2724,CA,(858) 404-7800,L3 APPLIED TECHNOLOGIES INC,03/13/2012,54199,"ALL OTH PROF, SCIENTIFIC & TECHNICAL SERVICES"
2021,y,LOGIC,SCORP,9150 GRAMERCY DR SUITE 287,SAN DIEGO,92123-4000,CA,(619) 729-5004,LOGIC PM,08/23/2023,54199,"ALL OTH PROF, SCIENTIFIC & TECHNICAL SERVICES"
2701,y,M5 HOSTING INC,CORP,10632 GABACHO DR,SAN DIEGO,92124-1405,CA,,M5 HOSTING INC,10/21/2013,54199,"ALL OTH PROF, SCIENTIFIC & TECHNICAL SERVICES"
3843,y,MATPHIL TECHNOLOGIES INC,CORP,9477 WAPLES ST SUITE 120,SAN DIEGO,92121-2937,CA,(800) 243-3232,MATPHIL TECHNOLOGIES INC,06/09/1993,54199,"ALL OTH PROF, SCIENTIFIC & TECHNICAL SERVICES"
4427,y,MENDTRONIX INC,SCORP,1855 DORNOCH CT SUITE 100,SAN DIEGO,92154-7300,CA,(858) 726-0200,MENDTRONIX INC,05/06/2021,54199,"ALL OTH PROF, SCIENTIFIC & TECHNICAL SERVICES"
5604,y,MOLECULAR DIAGNOSTIC SERVICES,CORP,9455 FARNHAM ST SUITE 100,SAN DIEGO,92123-1396,CA,(858) 450-9990,JBC CONTRACT RESEARCH SERVICES INC,05/22/2014,54199,"ALL OTH PROF, SCIENTIFIC & TECHNICAL SERVICES"
7012,y,NEXTIVITY INC,CORP,16550 W BERNARDO DR SUITE 550,SAN DIEGO,92127,CA,(858) 485-9442,NEXTIVITY INC,03/19/2007,54199,"ALL OTH PROF, SCIENTIFIC & TECHNICAL SERVICES"
7015,y,NEXUS DX INC,CORP,6759 MESA RIDGE RD SUITE 100,SAN DIEGO,92121-2990,CA,(858) 410-4600,NEXUS DX INC,08/21/2009,54199,"ALL OTH PROF, SCIENTIFIC & TECHNICAL SERVICES"
7497,y,NUMOTION,CORP,8940 ACTIVITY RD SUITE K,SAN DIEGO,92126-4462,CA,(408) 522-1200,ATG DESIGNING MOBILITY INC,03/09/2008,54199,"ALL OTH PROF, SCIENTIFIC & TECHNICAL SERVICES"
8468,y,PACIFIC AEROSPACE CONSULTING INC,SCORP,1940 GARNET AVE SUITE 200,SAN DIEGO,92109-3575,CA,(858) 829-4620,PACIFIC AEROSPACE CONSULTING INC,07/02/2004,54199,"ALL OTH PROF, SCIENTIFIC & TECHNICAL SERVICES"
10682,y,PRECISION TECH CONNECT INC,CORP,1441 N CUYAMACA ST,EL CAJON,92020-1508,CA,(619) 588-0800,PRECISION TECH CONNECT INC,10/24/2014,54199,"ALL OTH PROF, SCIENTIFIC & TECHNICAL SERVICES"
11449,y,QUALCOMM MEMS TECHNOLOGIES INC,CORP,5775 MOREHOUSE DR,SAN DIEGO,92121-1714,CA,(858) 587-1121,QUALCOMM MEMS TECHNOLOGIES INC,06/27/2005,54199,"ALL OTH PROF, SCIENTIFIC & TECHNICAL SERVICES"
13030,y,RICOH USA INC,CORP,401 B ST SUITE 1700,SAN DIEGO,92101-4297,CA,,RICOH USA INC,09/26/2001,54199,"ALL OTH PROF, SCIENTIFIC & TECHNICAL SERVICES"
13036,y,RICOH USA INC,CORP,3750 TORREY VIEW CT,SAN DIEGO,92130-2622,CA,,RICOH USA INC,09/26/2001,54199,"ALL OTH PROF, SCIENTIFIC & TECHNICAL SERVICES"
13038,y,RICOH USA INC,CORP,17075 THORNMINT CT,SAN DIEGO,92127-2413,CA,,RICOH USA INC,09/26/2001,54199,"ALL OTH PROF, SCIENTIFIC & TECHNICAL SERVICES"
13041,y,RICOH USA INC,CORP,3020 CHILDRENS WAY,SAN DIEGO,92123-4223,CA,,RICOH USA INC,09/26/2001,54199,"ALL OTH PROF, SCIENTIFIC & TECHNICAL SERVICES"
14555,y,SAN DIEGO AIR & SPACE TECHNOLOGY CENTER,CORP,3050 PACIFIC HWY,SAN DIEGO,92101-1127,CA,(619) 683-8900,SAN DIEGO AIR & SPACE TECHNOLOGY CENTER,04/21/2006,54199,"ALL OTH PROF, SCIENTIFIC & TECHNICAL SERVICES"
16033,y,SEANET ELECTRONICS INC,CORP,2540 SHELTER ISLAND DR SUITE B,SAN DIEGO,92106-3162,CA,(619) 222-0638,SEANET ELECTRONICS INC,05/02/2002,54199,"ALL OTH PROF, SCIENTIFIC & TECHNICAL SERVICES"
16053,y,SEASIDE COMPUTERS,CORP,555 SATURN BLVD SUITE B PMB BOX 438,SAN DIEGO,92154-4798,CA,(858) 268-0238,SEASIDE TECHNOLOGIES INC,01/25/1983,54199,"ALL OTH PROF, SCIENTIFIC & TECHNICAL SERVICES"
16838,y,SIEMENS INDUSTRY INC,CORP,10100 WILLOW CREEK RD,SAN DIEGO,92131-1636,CA,(858) 536-5575,SIEMENS INDUSTRY INC,11/13/2001,54199,"ALL OTH PROF, SCIENTIFIC & TECHNICAL SERVICES"
3658,y,APPFOLIO INC,CORP,8620 SPECTRUM CENTER BLVD,SAN DIEGO,92123-1406,CA,(800) 510-5469,APPFOLIO INC,06/16/2015,54199,"ALL OTH PROF, SCIENTIFIC & TECHNICAL SERVICES"
1708,y,LINK N LOAD,SCORP,5044 MAYNARD ST,SAN DIEGO,92122-3934,CA,(858) 587-3962,LINK N LOAD INC,05/13/2003,5415,COMPUTER SYSTEMS DESIGN & RELATED SERVICES
1815,y,LITESCAPE TECHNOLOGIES INC,CORP,440 STEVENS AVE SUITE 200,SOLANA BEACH,92075-2059,CA,(650) 292-0331,LITESCAPE TECHNOLOGIES INC,07/11/2018,54151,COMPUTER SYSTEMS DESIGN & RELATED SERVICES
1870,y,LITUS GLOBAL SOLUTIONS,SCORP,7030 ALAMITOS AVE,SAN DIEGO,92154-4764,CA,(858) 251-1604,LITUS GLOBAL SOLUTIONS,01/24/2019,54151,COMPUTER SYSTEMS DESIGN & RELATED SERVICES
2282,y,LP DESIGN & CONSULTING SERVICES INC,CORP,7746 ARJONS DR SUITE C,SAN DIEGO,92126-4391,CA,(858) 254-8258,LP DESIGN & CONSULTING SERVICES INC,09/12/2016,54151,COMPUTER SYSTEMS DESIGN & RELATED SERVICES
3978,y,MAYER COMPUTER SERVICES,CORP,4944 CASS ST SUITE 1201B,SAN DIEGO,92109-2074,CA,(858) 272-6176,MAYER COMPUTER SERVICES INC,07/22/1985,5415,COMPUTER SYSTEMS DESIGN & RELATED SERVICES
4061,y,MCCARTHY INFORMATION SYSTEMS,CORP,11319 APRIL LEIGH TER,SAN DIEGO,92126-6000,CA,(619) 572-9707,MCCARTHY INFORMATION SYSTEMS INC,03/16/1998,5415,COMPUTER SYSTEMS DESIGN & RELATED SERVICES
4207,y,MEADOR CONSULTANTS,CORP,5147 MONTESSA ST,SAN DIEGO,92124-1514,CA,(858) 279-0719,MGM BUSINESS ENTERPRISES,04/25/2002,5415,COMPUTER SYSTEMS DESIGN & RELATED SERVICES
5138,y,MINERVA ASSOCIATES INC,CORP,5280 CARROLL CANYON RD SUITE 202,SAN DIEGO,92121-1783,CA,(858) 792-8626,MINERVA ASSOCIATES INC,01/08/2019,54151,COMPUTER SYSTEMS DESIGN & RELATED SERVICES
5411,y,MITEK SYSTEMS INC,CORP,600 B ST SUITE 100,SAN DIEGO,92101-4505,CA,(858) 503-7810,MITEK SYSTEMS INC,02/13/2006,54151,COMPUTER SYSTEMS DESIGN & RELATED SERVICES
5795,y,MOPHILLY TECHNOLOGY INC,CORP,3843 PARK BLVD SUITE 7,SAN DIEGO,92103-3627,CA,(619) 296-0114,MOPHILLY TECHNOLOGY INC,04/01/2020,54151,COMPUTER SYSTEMS DESIGN & RELATED SERVICES
6166,y,MURKEN MEDIA INC,CORP,9149 OVIEDO ST,SAN DIEGO,92129-2134,CA,(619) 846-6387,MURKEN MEDIA INC,07/11/2011,54151,COMPUTER SYSTEMS DESIGN & RELATED SERVICES
6291,y,MYGAMEDAYLIVE INC,CORP,501 W BROADWAY SUITE 800,SAN DIEGO,92101-3546,CA,(800) 710-2055,MYGAMEDAYLIVE INC,02/23/2021,54151,COMPUTER SYSTEMS DESIGN & RELATED SERVICES
6835,y,NET NERDS CORPORATION,CORP,1522 KNOLL PARK GLEN,ESCONDIDO,92029,CA,(858) 549-7702,NET NERDS CORPORATION,01/25/1999,5415,COMPUTER SYSTEMS DESIGN & RELATED SERVICES
6957,y,NEWBLUE INC,SCORP,1223 CLEVELAND AVE SUITE 200,SAN DIEGO,92103-3301,CA,(858) 551-5145,NEWBLUE INC,06/01/2004,54151,COMPUTER SYSTEMS DESIGN & RELATED SERVICES
7391,y,NORTHROP GRUMMAN SYSTEMS CORPORATION,CORP,9326 SPECTRUM CENTER BLVD,SAN DIEGO,92123-1443,CA,(858) 514-9000,NORTHROP GRUMMAN SYSTEMS CORPORATION,10/06/2010,5415,COMPUTER SYSTEMS DESIGN & RELATED SERVICES
7393,y,NORTHROP GRUMMAN SYSTEMS CORPORATION,CORP,15120 INNOVATION DR,SAN DIEGO,92128-3402,CA,(858) 514-9000,NORTHROP GRUMMAN SYSTEMS CORPORATION,10/06/2010,5415,COMPUTER SYSTEMS DESIGN & RELATED SERVICES
9415,y,PDICTA CORP,CORP,4432 NEW HAMPSHIRE ST,SAN DIEGO,92116-1045,CA,(619) 368-3311,PDICTA CORP,05/09/2003,54151,COMPUTER SYSTEMS DESIGN & RELATED SERVICES
10094,y,PINNACLE TECHNOLOGY CONSULTING INC,SCORP,10136 LONE DOVE ST,SAN DIEGO,92127-3481,CA,(858) 204-2166,PINNACLE TECHNOLOGY CONSULTING INC,01/16/2003,5415,COMPUTER SYSTEMS DESIGN & RELATED SERVICES
10105,y,PINT INC,CORP,2105 GARNET AVE,SAN DIEGO,92109-3670,CA,(858) 270-2086,POWELL THOMAS A,07/17/1996,5415,COMPUTER SYSTEMS DESIGN & RELATED SERVICES
11027,y,PROCURO INC,CORP,10590 W OCEAN AIR DR SUITE 100,SAN DIEGO,92130-4682,CA,(858) 457-8160,PROCURO INC,07/01/2005,5415,COMPUTER SYSTEMS DESIGN & RELATED SERVICES
11291,y,PUNCH INC,SCORP,5222 LOVELOCK ST,SAN DIEGO,92110-4011,CA,(858) 274-4100,PUNCH INC,03/30/2009,5415,COMPUTER SYSTEMS DESIGN & RELATED SERVICES
11417,y,QUADKOR INC,SCORP,9655 GRANITE RIDGE DR SUITE 200,SAN DIEGO,92123-2676,CA,(949) 284-8115,QUADKOR INC,05/27/2015,5415,COMPUTER SYSTEMS DESIGN & RELATED SERVICES
12564,y,RELIABLE TECHNICAL SERVICE CORP/STEVEN JONES PHOTO,CORP,10069 BRANFORD RD,SAN DIEGO,92129-3224,CA,(858) 484-7509,RELIABLE TECHNICAL SERVICE CORPORATION,02/22/1991,5415,COMPUTER SYSTEMS DESIGN & RELATED SERVICES
12772,y,RETINOVA INC,SCORP,600 FRONT ST SUITE 417,SAN DIEGO,92101-6736,CA,(619) 239-2993,RETINOVA INC,07/18/2007,54151,COMPUTER SYSTEMS DESIGN & RELATED SERVICES
12847,y,RF SOLUTIONS  INC,CORP,3952 SANTA NELLA PL,SAN DIEGO,92130-2288,CA,(858) 356-7660,RF SOLUTIONS  INC,05/13/2015,54151,COMPUTER SYSTEMS DESIGN & RELATED SERVICES
13962,y,RUGGERA CONSULTING INC,CORP,10660 LAKECREST PT,SAN DIEGO,92131-2310,CA,(858) 455-6045,RUGGERA CONSULTING INC,07/07/2000,5415,COMPUTER SYSTEMS DESIGN & RELATED SERVICES
14149,y,SA INVESTMENT,CORP,4540 KEARNY VILLA RD SUITE 204,SAN DIEGO,92123-1577,CA,(619) 331-4060,SA INVESTMENT,04/07/2017,5415,COMPUTER SYSTEMS DESIGN & RELATED SERVICES
15765,y,SCRIPT PERFECTION ENTERPRISES INC,CORP,3560 VISTA DE LA ORILLA,SAN DIEGO,92117-5734,CA,(858) 270-7204,SCRIPT PERFECTION ENTERPRISES INC,03/13/1997,5415,COMPUTER SYSTEMS DESIGN & RELATED SERVICES
15854,y,SD NETWORK PRO INC,SCORP,10620 TREENA ST SUITE 230,SAN DIEGO,92131-1140,CA,(760) 315-7600,SD NETWORK PRO INC,01/06/2020,54151,COMPUTER SYSTEMS DESIGN & RELATED SERVICES
16325,y,SERVERCARE INC,CORP,16885 VIA DEL CAMPO CT SUITE 211,SAN DIEGO,92127-1700,CA,,SERVERCARE INC,05/10/1999,5415,COMPUTER SYSTEMS DESIGN & RELATED SERVICES
17276,y,SMALL SYSTEMS,CORP,2844 CHALAR ST,SAN DIEGO,92123-2846,CA,(619) 299-9100,SMALLSYSTEMS INTERNATIONAL INC,03/22/1999,5415,COMPUTER SYSTEMS DESIGN & RELATED SERVICES
17313,y,SMARTERSOLUTIONS INC,CORP,5095 MURPHY CANYON RD SUITE 127,SAN DIEGO,92123-4348,CA,(619) 501-0900,SIRA SANEHPAL,08/25/1997,5415,COMPUTER SYSTEMS DESIGN & RELATED SERVICES
17314,y,SMARTRONIX  INC,SCORP,6020 CORNERSTONE CT SUITE 240,SAN DIEGO,92121-3729,CA,(301) 373-6000,SMARTRONIX  INC,02/05/2016,54151,COMPUTER SYSTEMS DESIGN & RELATED SERVICES
17632,y,SOLEX MICRO / DR CHIP,CORP,5002 SANTA FE ST,SAN DIEGO,92109-1611,CA,(858) 270-5877,SOLEX MICRO INC,10/16/1989,5415,COMPUTER SYSTEMS DESIGN & RELATED SERVICES
17890,y,SOUTH PARK SOFTWARE INC,CORP,1342 GREGORY ST,SAN DIEGO,92102-2443,CA,(619) 507-1682,SOUTH PARK SOFTWARE INC,06/11/2021,54151,COMPUTER SYSTEMS DESIGN & RELATED SERVICES
21640,y,THINKSMART INC,CORP,12220 WORLD TRADE DR SUITE 200,SAN DIEGO,92128-3900,CA,(866) 290-0301,THINKSMART INC,12/27/2006,54151,COMPUTER SYSTEMS DESIGN & RELATED SERVICES
22088,y,TOLCHIN ENTERPRISES,CORP,9450 MIRA MESA BLVD SUITE B332,SAN DIEGO,92126-4801,CA,(619) 261-9825,TOLCHIN ENTERPRISES,04/27/2001,5415,COMPUTER SYSTEMS DESIGN & RELATED SERVICES
22846,y,TT SOFTWARE SOLUTION INC,CORP,3065 BEYER BLVD SUITE B-103,SAN DIEGO,92154-3499,CA,(619) 428-3315,TT SOFTWARE SOLUTION INC,11/24/2023,5415,COMPUTER SYSTEMS DESIGN & RELATED SERVICES
23478,y,UTILIWARE CORPORATION,CORP,3920 SAN AUGUSTINE WAY,SAN DIEGO,92130-2260,CA,(858) 481-9550,UTILIWARE CORPORATION,06/29/2005,54151,COMPUTER SYSTEMS DESIGN & RELATED SERVICES
23814,y,VERIMATRIX INC,CORP,6825 FLANDERS DR,SAN DIEGO,92121-2905,CA,(858) 677-7800,VERIMATRIX INC,04/28/2001,5415,COMPUTER SYSTEMS DESIGN & RELATED SERVICES
24223,y,VISIONTREE SOFTWARE INC,CORP,8885 RIO SAN DIEGO DR SUITE 220,SAN DIEGO,92108-1626,CA,(619) 295-2800,VISIONTREE SOFTWARE INC,05/05/2005,5415,COMPUTER SYSTEMS DESIGN & RELATED SERVICES
24718,y,WEB INCEPTIONS INC,CORP,7015 CHARMANT DR SUITE 200,SAN DIEGO,92122-4374,CA,(858) 232-3978,WEB INCEPTIONS INC,08/03/2004,5415,COMPUTER SYSTEMS DESIGN & RELATED SERVICES
24725,y,WEBBEGE INC,SCORP,7851 MISSION CENTER CT SUITE 108,SAN DIEGO,92108-1326,CA,(619) 786-7075,WEBBEGE INC,10/31/2016,5415,COMPUTER SYSTEMS DESIGN & RELATED SERVICES
24737,y,WEBROOT INC,CORP,4655 EXECUTIVE DR SUITE 500,SAN DIEGO,92121-3125,CA,(732) 652-3933,WEBROOT INC,11/17/2016,5415,COMPUTER SYSTEMS DESIGN & RELATED SERVICES
25550,y,WORLD 5 INC,SCORP,645 FRONT ST SUITE 2202,SAN DIEGO,92101-7088,CA,(619) 798-6146,WORLD 5 INC,04/01/2014,54151,COMPUTER SYSTEMS DESIGN & RELATED SERVICES
25689,y,XETRA NETWORKS INC,CORP,3590 MOUNT ACADIA BLVD,SAN DIEGO,92111-4531,CA,,XETRA NETWORKS INC,10/25/2000,5415,COMPUTER SYSTEMS DESIGN & RELATED SERVICES
1775,y,AGILE SIX APPLICATIONS INC,CORP,12830 VINEYARD CREST PL,LAKESIDE,92101-3546,CA,(619) 350-6292,AGILE SIX APPLICATIONS INC,01/20/2021,54151,COMPUTER SYSTEMS DESIGN & RELATED SERVICES
3194,y,ANCORA SOFTWARE INC,CORP,402 W BROADWAY SUITE 400,SAN DIEGO,92101-3554,CA,(844) 626-2672,ANCORA SOFTWARE INC,06/24/2015,54151,COMPUTER SYSTEMS DESIGN & RELATED SERVICES
3609,y,APCOM COMPUTER CONSULTANTS INC,CORP,7297 RONSON RD SUITE K,SAN DIEGO,92111-1428,CA,(858) 495-7300,APCOM COMPUTER CONSULTANTS INC,01/18/1989,5415,COMPUTER SYSTEMS DESIGN & RELATED SERVICES
4389,y,ATLAS TECHNOLOGIES INC,CORP,2305 HISTORIC DECATUR RD SUITE 100,SAN DIEGO,92106-6071,CA,(858) 488-0116,ATLAS TECHNOLOGIES INC,04/26/2004,54151,COMPUTER SYSTEMS DESIGN & RELATED SERVICES
4787,y,AZURENGINE TECHNOLOGIES INC,CORP,11772 SORRENTO VALLEY RD SUITE 123,SAN DIEGO,92121-1016,CA,(858) 610-4898,AZURENGINE TECHNOLOGIES INC,10/25/2021,5415,COMPUTER SYSTEMS DESIGN & RELATED SERVICES
4788,y,AZURENGINE TECHNOLOGIES INC,CORP,16835 W BERNARDO DR SUITE 203,SAN DIEGO,92127-1613,CA,(858) 683-4497,AZURENGINE TECHNOLOGIES INC,06/20/2022,54151,COMPUTER SYSTEMS DESIGN & RELATED SERVICES
5417,y,BAYSIDENETWORKS.COM INC,CORP,12409 VIA CABEZON,SAN DIEGO,92129-3904,CA,(858) 484-0968,GRUENWALD CHRIS J,07/17/1989,5415,COMPUTER SYSTEMS DESIGN & RELATED SERVICES
6693,y,BODYPLAN FITNESS INC,CORP,3434 PALM ST,SAN DIEGO,92104-5235,CA,,BODYPLAN FITNESS INC,11/27/2018,54151,COMPUTER SYSTEMS DESIGN & RELATED SERVICES
7805,y,CADOPIA INC,CORP,4660 LA JOLLA VILLAGE DR SUITE 100,SAN DIEGO,92121,CA,,CADOPIA INC,06/07/2007,54151,COMPUTER SYSTEMS DESIGN & RELATED SERVICES
8314,y,CANNATA AND ASSOCIATES INC,CORP,3166 LAUREL ST,SAN DIEGO,92104-5025,CA,(619) 283-2256,CANNATA AND ASSOCIATES INC,08/09/2004,54151,COMPUTER SYSTEMS DESIGN & RELATED SERVICES
9150,y,CHAD V MOLENDA,CORP,760 SAPPHIRE ST SUITE 3,SAN DIEGO,92109-1032,CA,(812) 322-4952,GEEKS ON THINGS INC,08/06/2015,54151,COMPUTER SYSTEMS DESIGN & RELATED SERVICES
9299,y,CHARTPERFECT INC,CORP,3525 DEL MAR HEIGHTS RD SUITE 299,SAN DIEGO,92130-2199,CA,(619) 295-2332,CHARTPERFECT INC,07/12/2000,5415,COMPUTER SYSTEMS DESIGN & RELATED SERVICES
9992,y,CLARILOGIC INC,SCORP,13500 EVENING CREEK N DR SUITE 600,SAN DIEGO,92128-8125,CA,(858) 586-7900,CLARILOGIC INC,11/22/2005,54151,COMPUTER SYSTEMS DESIGN & RELATED SERVICES
9996,y,CLARITY DESIGN INC,CORP,13000 GREGG ST SUITE B,POWAY,92064-7151,CA,(858) 746-3500,CLARITY DESIGN INC,02/15/1991,5415,COMPUTER SYSTEMS DESIGN & RELATED SERVICES
10812,y,COMPUTER MASTERS,CORP,1485 POINSETTIA AVE SUITE 111,VISTA,92081-8537,CA,(760) 448-5577,RC & JT INC,04/01/1991,5415,COMPUTER SYSTEMS DESIGN & RELATED SERVICES
11128,y,CORONA CONSULTING INC,CORP,8305 VICKERS ST SUITE 100,SAN DIEGO,92111-2111,CA,(858) 587-1788,CORONA CONSULTING INC,07/28/1989,5415,COMPUTER SYSTEMS DESIGN & RELATED SERVICES
11681,y,CRYPTOCRACK NETWORK SOLUTIONS INC,CORP,501 W BROADWAY SUITE A-399,SAN DIEGO,92101-3536,CA,(619) 723-0301,CRYPTOCRACK NETWORK SOLUTIONS INC,11/07/2005,54151,COMPUTER SYSTEMS DESIGN & RELATED SERVICES
12402,y,DARREL EDWARDS INC,CORP,4995 MURPHY CANYON RD SUITE 110,SAN DIEGO,92123-4365,CA,(858) 576-4234,DARREL EDWARDS INC,06/13/2002,5415,COMPUTER SYSTEMS DESIGN & RELATED SERVICES
12433,y,DATANET SOLUTIONS GROUP INC,CORP,2445 05TH AVE SUITE 200,SAN DIEGO,92101-1665,CA,(760) 466-1200,DATANET SOLUTIONS GROUP INC,07/12/2018,5415,COMPUTER SYSTEMS DESIGN & RELATED SERVICES
14923,y,ELECTRONIC AND TELECOM SYSTEMS  INC,CORP,9919 HIBERT ST SUITE F,SAN DIEGO,92131-1076,CA,(619) 847-3766,ELECTRONIC AND TELECOM SYSTEMS INC,04/03/2015,54151,COMPUTER SYSTEMS DESIGN & RELATED SERVICES
16055,y,EXPLORETECH,CORP,3559 NILE ST,SAN DIEGO,92104-3816,CA,,ALEX MILTENBERGER,10/23/2023,5415,COMPUTER SYSTEMS DESIGN & RELATED SERVICES
16103,y,EXPRESSOFT INC,CORP,7828 FAY AVE SUITE 200,LA JOLLA,92037,CA,(858) 454-8560,EXPRESSOFT INC,08/05/2019,5415,COMPUTER SYSTEMS DESIGN & RELATED SERVICES
20552,y,HEXODEN HOLDINGS INC,SCORP,13799 TORREY DEL MAR DR,SAN DIEGO,92130-5630,CA,(808) 201-3412,HEXODEN HOLDINGS INC,01/06/2022,54151,COMPUTER SYSTEMS DESIGN & RELATED SERVICES
21173,y,HUBBE INC,SCORP,11956 BERNARDO PLAZA DR,SAN DIEGO,92128-2538,CA,(760) 644-4922,HUBBE INC,01/31/2023,5415,COMPUTER SYSTEMS DESIGN & RELATED SERVICES
21655,y,IN SILICO TECHNOLOGIES INC,CORP,4492 MOUNT HENRY AVE,SAN DIEGO,92117-4708,CA,(619) 543-5081,IN SILICO TECHNOLOGIES INC,09/16/1992,5415,COMPUTER SYSTEMS DESIGN & RELATED SERVICES
21765,y,INFINITY NETWORKING INC,CORP,3368 GOVERNOR DR SUITE F176,SAN DIEGO,92122-2936,CA,(858) 571-3154,INFINITY NETWORKING INC,01/22/2002,5415,COMPUTER SYSTEMS DESIGN & RELATED SERVICES
21770,y,INFINITYCTI INCQ,CORP,10601 TIERRASANTA BLVD SUITE 178,SAN DIEGO,92124-2631,CA,(858) 467-0581,INFINITYCTI INC,11/30/1998,5415,COMPUTER SYSTEMS DESIGN & RELATED SERVICES
22213,y,IPKEYS POWER PARTNERS INC,CORP,11315 RANCHO BERNARDO RD SUITE 134,SAN DIEGO,92127-1463,CA,(704) 558-4067,IPKEYS POWER PARTNERS INC,08/31/2022,5415,COMPUTER SYSTEMS DESIGN & RELATED SERVICES
22405,y,IVY ENERGY,CORP,1230 COLUMBIA ST SUITE 930,SAN DIEGO,92101-8539,CA,,IVY ENERGY INC,07/03/2023,54151,COMPUTER SYSTEMS DESIGN & RELATED SERVICES
24608,y,KAI OS TECHNOLOGIES (SOFTWARE) INC,CORP,9920 PACIFIC HEIGHTS BLVD SUITE 150,SAN DIEGO,92121-4361,CA,(858) 547-3940,KAI OS TECHNOLOGIES (SOFTWARE) INC,01/17/2019,54151,COMPUTER SYSTEMS DESIGN & RELATED SERVICES
25044,y,KELAROO INC,CORP,3385 VILLANOVA AVE,SAN DIEGO,92122-2308,CA,(858) 259-7561,KELAROO INC,01/22/2010,54151,COMPUTER SYSTEMS DESIGN & RELATED SERVICES
25662,y,KOAM ENGINEERING SYSTEMS (KES),CORP,7807 CONVOY CT SUITE 200,SAN DIEGO,92111-1213,CA,(858) 292-0922,KOAM ENGINEERING SYSTEMS INC,12/13/1994,5415,COMPUTER SYSTEMS DESIGN & RELATED SERVICES
111,y,LA GALLERIE DU CHIEN ET DU CHAT,CORP,3592 30TH ST,SAN DIEGO,92104-4143,CA,(619) 291-3686,LA GALLERIE DU CHIEN ET DU CHAT,07/18/2007,541511,CUSTOM COMPUTER PROGRAMMING SERVICES
6307,y,MYRIAD SOFTWARE LLC,CORP,10805 RANCHO BERNARDO RD SUITE 250,SAN DIEGO,92127,CA,(858) 566-4243,MYRIAD SOFTWARE LLC,08/01/1990,541511,CUSTOM COMPUTER PROGRAMMING SERVICES
6840,y,NETBURNER INC,CORP,16855 W BERNARDO DR SUITE 260,SAN DIEGO,92127-1626,CA,(858) 558-0293,NETBURNER INC,07/11/2007,541511,CUSTOM COMPUTER PROGRAMMING SERVICES
8085,y,ONLINE LOGISTICS CALIFORNIA INC,CORP,3077 CLAIREMONT DR SUITE B-461,SAN DIEGO,92117-6800,CA,(619) 743-3181,ONLINE LOGISTICS CALIFORNIA INC,05/14/2009,541511,CUSTOM COMPUTER PROGRAMMING SERVICES
9243,y,PATTERN INSIGHT INC,CORP,8650 GENESEE AVE SUITE 214-927600,SAN DIEGO,92122,CA,(858) 412-3872,PATTERN INSIGHT INC,02/01/2013,541511,CUSTOM COMPUTER PROGRAMMING SERVICES
9718,y,PERSPECTIUM CORP,SCORP,10301 MEANLEY DR SUITE 250,SAN DIEGO,92131-3011,CA,(888) 620-8880,PERSPECTIUM CORP,05/04/2015,541511,CUSTOM COMPUTER PROGRAMMING SERVICES
10082,y,"PINNACLE ACCESS, INC.",CORP,3435 CAMINO DEL RIO SOUTH SUITE 316,SAN DIEGO,92108-3912,CA,(760) 726-9862,HASHEMIPOUR,06/19/1998,541511,CUSTOM COMPUTER PROGRAMMING SERVICES
12068,y,RAPID GUN SYSTEMS,CORP,3333 CAMINO DEL RIO SOUTH S SUITE S,SAN DIEGO,92108-3808,CA,(619) 754-4100,RAPID DOMAINS INC,08/19/2015,541511,CUSTOM COMPUTER PROGRAMMING SERVICES
15559,y,SCALE INVARIANT,CORP,4328 ROUS ST,SAN DIEGO,92122-2631,CA,(858) 688-0746,SCALE INVARIANT,03/25/2016,541511,CUSTOM COMPUTER PROGRAMMING SERVICES
17036,y,SIMULSTAT INCORPORATED,SCORP,440 STEVENS AVE SUITE 200,SOLANA BEACH,92075-2059,CA,(858) 546-4337,SIMULSTAT INCORPORATED,11/14/2005,541511,CUSTOM COMPUTER PROGRAMMING SERVICES
18772,y,STORIX INC,SCORP,9150 CHESAPEAKE DR SUITE 290,SAN DIEGO,92123-1023,CA,(619) 543-0200,STORIX INC,10/23/2003,541511,CUSTOM COMPUTER PROGRAMMING SERVICES
19641,y,SYMLOG CONSULTING GROUP,CORP,18580 POLVERA DR,SAN DIEGO,92128-1120,CA,(858) 673-2098,SYMLOG CONSULTING GROUP,04/20/1993,541511,CUSTOM COMPUTER PROGRAMMING SERVICES
20385,y,TELEO CONSULTING INC,CORP,1360 GRANADA AVE,SAN DIEGO,92102-1725,CA,(858) 692-9731,TELEO CONSULTING INC,08/13/2021,541511,CUSTOM COMPUTER PROGRAMMING SERVICES
21844,y,TILLSTER INC,CORP,5959 CORNERSTONE CT SUITE 100,SAN DIEGO,92121-3764,CA,(858) 346-6107,TILLSTER INC,12/22/2003,541511,CUSTOM COMPUTER PROGRAMMING SERVICES
25755,y,XY LABS INC,CORP,1405 30TH ST SUITE A,SAN DIEGO,92154-3403,CA,(201) 303-1830,XY LABS INC,09/17/2014,541511,CUSTOM COMPUTER PROGRAMMING SERVICES
26190,y,ZINGSOFT INC,CORP,2105 GARNET AVE,SAN DIEGO,92109-3670,CA,(858) 490-5289,ZINGSOFT INC,10/29/2016,541511,CUSTOM COMPUTER PROGRAMMING SERVICES
26215,y,ZOE IT GROUP INC,SCORP,600 W BROADWAY SUITE 700,SAN DIEGO,92101-3370,CA,(408) 806-4323,ZOE IT GROUP INC,10/18/2022,541511,CUSTOM COMPUTER PROGRAMMING SERVICES
2520,y,ALLIED ELECTRONICS,CORP,7290 NAVAJO RD SUITE 107,SAN DIEGO,92119-1631,CA,(858) 558-2270,ALLIED ELECTRONICS,12/01/1998,541511,CUSTOM COMPUTER PROGRAMMING SERVICES
3701,y,APPSOD INC,CORP,4653 CARMEL MOUNTAIN RD SUITE 308-317,SAN DIEGO,92130-6650,CA,(858) 353-5126,APPSOD INC,05/08/2012,541511,CUSTOM COMPUTER PROGRAMMING SERVICES
4623,y,AVANTIICO INC,CORP,600 B ST SUITE 300,SAN DIEGO,92101-4505,CA,(619) 483-4180,AVANTIICO INC,07/27/2021,541511,CUSTOM COMPUTER PROGRAMMING SERVICES
6538,y,BLUE SAGE SOFTWARE,CORP,12463 RANCHO BERNARDO RD SUITE 152,SAN DIEGO,92128-2143,CA,(973) 366-1900,BLUE SAGE SOFTWARE INC,07/21/2015,541511,CUSTOM COMPUTER PROGRAMMING SERVICES
6954,y,BRANCH+MERGE DEVELOPMENT INC,CORP,877 ISLAND AVE SUITE 217,SAN DIEGO,92101-7145,CA,,BRANCH+MERGE DEVELOPMENT INC,11/08/2016,541511,CUSTOM COMPUTER PROGRAMMING SERVICES
10173,y,CLICKUP,CORP,350 10TH AVE SUITE 500,SAN DIEGO,92101-7497,CA,(760) 707-7027,CLICKUP,06/16/2020,541511,CUSTOM COMPUTER PROGRAMMING SERVICES
10680,y,COMMA,CORP,3900 HARNEY ST,SAN DIEGO,92110-2892,CA,(858) 779-4335,COMMA AI INC,05/22/2019,541511,CUSTOM COMPUTER PROGRAMMING SERVICES
13506,y,DIVO SYSTEMS INC,CORP,8861 VILLA LA JOLLA DR SUITE 13495,LA JOLLA,92037-1918,CA,(858) 546-2379,DIVO SYSTEMS INC,07/16/1992,541511,CUSTOM COMPUTER PROGRAMMING SERVICES
13922,y,DR FRANKENSTEIN'S,CORP,113 W G W ST,SAN DIEGO,92101-6096,CA,(619) 535-8853,LISA LORRAINE BOWEN INC,04/26/2021,541511,CUSTOM COMPUTER PROGRAMMING SERVICES
14688,y,EFFECTECH INC,CORP,17013 ALBERT AVE,SAN DIEGO,92127-2835,CA,(858) 344-0630,EFFECTECH INC,07/11/2007,541511,CUSTOM COMPUTER PROGRAMMING SERVICES
14692,y,EFFECTIVESOFT CORPORATION,CORP,4445 EASTGATE MALL SUITE 200,SAN DIEGO,92121-1979,CA,(800) 288-9659,EFFECTIVESOFT CORPORATION,02/19/2013,541511,CUSTOM COMPUTER PROGRAMMING SERVICES
15425,y,ENTERPRISE SOLUTIONS IMPLEMENTATION SPECIALISTS,CORP,13446 POWAY RD SUITE 224,POWAY,92064-4714,CA,(858) 625-0060,ENTERPRISE SOLUTIONS IMPLEMENTATION SPECIA,05/11/1994,541511,CUSTOM COMPUTER PROGRAMMING SERVICES
20125,y,HAULER HERO,CORP,1450 FRAZEE RD SUITE 410,SAN DIEGO,92108-4341,CA,(347) 656-0111,HAULER HERO INC,04/05/2021,541511,CUSTOM COMPUTER PROGRAMMING SERVICES
21216,y,HUMANITY MEDIA INC,SCORP,1201 W ARBOR DR,SAN DIEGO,92103-1304,CA,(415) 413-3880,HUMANITY MEDIA INC,11/09/2021,541511,CUSTOM COMPUTER PROGRAMMING SERVICES
4658,y,MI EQUIPMENT USA INC,CORP,5752 OBERLIN DR SUITE 218,SAN DIEGO,92121-1747,CA,(408) 667-5552,MI EQUIPMENT USA INC,06/20/2016,8112,ELECTRONIC & PRECISION EQUIPMENT R&M
8053,y,ONE TOUCH LIVING,SCORP,15980 BERNARDO CENTER DR,SAN DIEGO,92127-1828,CA,(858) 798-9130,ONE TOUCH LIVING,07/18/2015,8112,ELECTRONIC & PRECISION EQUIPMENT R&M
10720,y,PREMIER CAR AUDIO INC,SCORP,10615 TIERRASANTA BLVD SUITE J,SAN DIEGO,92124-2615,CA,(858) 289-9799,PREMIER CAR AUDIO INC,10/27/2022,8112,ELECTRONIC & PRECISION EQUIPMENT R&M
20211,y,TAZZ LIGHTING INC,CORP,9555 DISTRIBUTION AVE,SAN DIEGO,92121-2373,CA,(858) 444-8880,TAZZ LIGHTING INC,12/13/2010,8112,ELECTRONIC & PRECISION EQUIPMENT R&M
1204,y,LEIDOS INC,CORP,10740 THORNMINT RD,SAN DIEGO,92127-2700,CA,(571) 526-6000,LEIDOS INC,03/25/2020,541514,IT SERVICES & SUPPORT
1205,y,LEIDOS INC,CORP,1330 30TH ST SUITE ABC,SAN DIEGO,92154,CA,(571) 526-6000,LEIDOS INC,03/25/2020,541514,IT SERVICES & SUPPORT
13433,y,ROBLE OFFICE SOLUTIONS,CORP,2667 CAMINO DEL RIO SOUTH SUITE 301-20,SAN DIEGO,92108-3707,CA,(619) 942-0509,ROBLE ENTERPRISES INC,05/03/2018,541514,IT SERVICES & SUPPORT
15629,y,SCIENCE APPLICATIONS INTERNATIONAL CORPORATION,CORP,1455 FRAZEE RD SUITE 10000,SAN DIEGO,92108-4301,CA,(978) 749-2330,SCIENCE APPLICATIONS INTERNATIONAL CORPORATION,06/03/2020,541514,IT SERVICES & SUPPORT
15630,y,SCIENCE APPLICATIONS INTERNATIONAL CORPORATION,CORP,7580 METROPOLITAN DR,SAN DIEGO,92108-4417,CA,(978) 749-2330,SCIENCE APPLICATIONS INTERNATIONAL CORPORATION,06/03/2020,541514,IT SERVICES & SUPPORT
16254,y,SEPHNO SYSTEMS INC,CORP,3534 REYNARD WAY SUITE C,SAN DIEGO,92103-7200,CA,(619) 692-0309,SEPHNO SYSTEMS INC,03/21/2000,541514,IT SERVICES & SUPPORT
17091,y,SITECRAFT INC,SCORP,4227 52ND ST SUITE 318,SAN DIEGO,92115-8147,CA,,SITECRAFT INC,04/24/2017,541514,IT SERVICES & SUPPORT
23316,y,UPDATE GREEN INC,CORP,7887 DUNBROOK RD SUITE C,SAN DIEGO,92126-4382,CA,(425) 891-0384,UPDATE GREEN INC,06/08/2015,541514,IT SERVICES & SUPPORT
23695,y,VASTEK INC,SCORP,1230 COLUMBIA ST SUITE 1180,SAN DIEGO,92101-8520,CA,(858) 939-9145,VASTEK INC,11/14/2018,541514,IT SERVICES & SUPPORT
23902,y,VETERANS EZ INFO INC,SCORP,1901 01ST AVE SUITE 192,SAN DIEGO,92101-2356,CA,(866) 839-1322,VETERANS EZ INFO INC,01/14/2015,541514,IT SERVICES & SUPPORT
24988,y,WESTEK NETWORKS INC,SCORP,148 JASMINE VALLEY WAY,SAN DIEGO,92102-6022,CA,(951) 666-9252,WESTEK NETWORKS INC,06/14/2023,541514,IT SERVICES & SUPPORT
25898,y,YMNET INC,CORP,5868 OWENS AVE SUITE 250,CARLSBAD,92008-5503,CA,(760) 479-2413,YMNET INC,04/02/2003,541514,IT SERVICES & SUPPORT
9134,y,CGI TECHNOLOGIES AND SOLUTIONS INC,CORP,7480 MISSION VALLEY RD SUITE 100,SAN DIEGO,92108-4433,CA,(514) 841-3250,CGI TECHNOLOGIES AND SOLUTIONS INC,12/27/2011,541514,IT SERVICES & SUPPORT
11624,y,CROWN COMPUTERS INC,SCORP,3655 ARGONNE ST,SAN DIEGO,92117-1012,CA,(858) 483-8770,CROWN COMPUTERS INC,08/21/2020,541514,IT SERVICES & SUPPORT
19041,y,GRAMLAN CONSULTING INC,CORP,4849 SARATOGA AVE,SAN DIEGO,92107-2815,CA,(619) 920-4855,GRAMLAN CONSULTING INC,10/10/2023,541514,IT SERVICES & SUPPORT
20647,y,HII MISSION TECHNOLOGIES,CORP,9444 BALBOA AVE SUITE 400,SAN DIEGO,92123-4378,CA,(757) 631-2202,HII MISSION TECHNOLOGIES CORP,04/26/2023,541514,IT SERVICES & SUPPORT
307,y,LABORATORY CORPORATION OF AMERICA,CORP,13112 EVENING CREEK DR,SAN DIEGO,92128-4108,CA,(858) 455-1221,LABORATORY CORPORATION,03/19/1997,5419,OTH PROFESSIONAL/SCIENTIFIC/TECHNICAL SERVICE
535,y,LASERLAB INC,CORP,6790 TOP GUN ST SUITE 9,SAN DIEGO,92121-4121,CA,(858) 558-1246,LASERLAB INC,09/15/1988,5419,OTH PROFESSIONAL/SCIENTIFIC/TECHNICAL SERVICE
310,y,LABS,CORP,3860 FALLON CIR,SAN DIEGO,92130-1867,CA,(619) 282-1114,LABORATORY & BIOMEDICAL SUPPLIES INC,07/02/1987,541,"PROFESSIONAL, SCIENTIFIC & TECHNICAL SERVICES"
312,y,LABSIMPLY INC,CORP,11125 FLINTKOTE AVE SUITE A,SAN DIEGO,92121-1213,CA,(630) 853-4324,LABSIMPLY INC,08/03/2022,541,"PROFESSIONAL, SCIENTIFIC & TECHNICAL SERVICES"
1123,y,LED PARTNERSHIP,CORP,3969 HARNEY ST,SAN DIEGO,92110-2827,CA,,LED PARTNERSHIP,05/08/2008,541,"PROFESSIONAL, SCIENTIFIC & TECHNICAL SERVICES"
16101,x,SECURE NETWORKS INC  ORGANICSOFT INC,SCORP,4901 MORENA BLVD SUITE 102A,SAN DIEGO,92117-3365,CA,(858) 769-5393,IVTAS,10/31/2017,5416,"MANAGEMENT, SCI & TECH CONSULTING SERVICES"
19846,x,T-SOLUTIONS,CORP,1495 PACIFIC HWY SUITE 200,SAN DIEGO,92101-2426,CA,(619) 295-2400,T-SOLUTIONS INC,11/21/2006,5416,"MANAGEMENT, SCI & TECH CONSULTING SERVICES"
20788,x,THE COMPUTER ADMIN INC,CORP,7867 CONVOY CT SUITE 302,SAN DIEGO,92111-1214,CA,(619) 713-7422,THE COMPUTER ADMIN INC,02/24/2023,5416,"MANAGEMENT, SCI & TECH CONSULTING SERVICES"
20866,x,THE ENGINEERING ENTERPRISE,CORP,2550 05TH AVE SUITE 710,SAN DIEGO,92103-6624,CA,(510) 263-1528,SHALLEY DIBBLE INC,11/17/2022,5416,"MANAGEMENT, SCI & TECH CONSULTING SERVICES"
24660,x,WAVE LOCH INC,CORP,8204 LA JOLLA SHORES DR,LA JOLLA,92037-3017,CA,(858) 454-1777,WAVE LOCH INC,05/20/2002,5416,"MANAGEMENT, SCI & TECH CONSULTING SERVICES"
24906,x,KAUFMAN GENETICS,SCORP,14019 CAMINITO VISTANA,SAN DIEGO,92130-3720,CA,(734) 777-9422,KAUFMAN GENETICS,07/07/2017,5416,"MANAGEMENT, SCI & TECH CONSULTING SERVICES"
1206,x,LEIDOS INC,CORP,10260 CAMPUS POINT DR,SAN DIEGO,92121-1522,CA,(619) 437-2011,LEIDOS INC,10/28/1988,5419,OTH PROFESSIONAL/SCIENTIFIC/TECHNICAL SERVICE
2000,x,LOCKHEED MARTIN CORPORATION,CORP,501 W BROADWAY SUITE 260,SAN DIEGO,92101-3561,CA,(619) 557-9130,LOCKHEED MARTIN CORPORATION,08/14/1997,5419,OTH PROFESSIONAL/SCIENTIFIC/TECHNICAL SERVICE
5159,x,MINI-SOFT INC,CORP,4855 RUFFNER ST SUITE C,SAN DIEGO,92111-1531,CA,(619) 771-5062,MINI-SOFT INC,07/26/2021,5419,OTH PROFESSIONAL/SCIENTIFIC/TECHNICAL SERVICE
11425,x,QUALCOMM ATHEROS COMMUNICATIONS,CORP,5775 MOREHOUSE DR,SAN DIEGO,92121-1714,CA,(858) 587-1121,QUALCOMM ATHEROS INC,01/19/2012,5419,OTH PROFESSIONAL/SCIENTIFIC/TECHNICAL SERVICE
11428,x,QUALCOMM GLOBAL SERVICES INC,CORP,5775 MOREHOUSE DR,SAN DIEGO,92121-1714,CA,(858) 587-1121,QUALCOMM GLOBAL SERVICES INC,02/23/1999,5419,OTH PROFESSIONAL/SCIENTIFIC/TECHNICAL SERVICE
20264,x,TEAM CODE INC,CORP,4551 PIUTE PL,SAN DIEGO,92117-3830,CA,(858) 277-5308,TEAM CODE INC,02/23/2001,5419,OTH PROFESSIONAL/SCIENTIFIC/TECHNICAL SERVICE
22529,x,TRANSRADIANT INSTITUTE,CORP,2489 BAJA CERRO CIR,SAN DIEGO,92109-1542,CA,(858) 273-2240,TRANSRADIANT INSTITUTE,03/01/1999,5419,OTH PROFESSIONAL/SCIENTIFIC/TECHNICAL SERVICE
11950,x,CYBERBYTE INCORPORATED,CORP,11302 GRASSY TRAIL DR,SAN DIEGO,92127-2337,CA,(858) 829-7781,INTELESIS TECHNOLOGIES CORPORATION,01/29/1997,5419,OTH PROFESSIONAL/SCIENTIFIC/TECHNICAL SERVICE
15841,x,EVENTS.COM INC,CORP,811 PROSPECT ST,LA JOLLA,92037-4207,CA,(858) 257-2300,EVENTS.COM INC,03/27/2020,5419,OTH PROFESSIONAL/SCIENTIFIC/TECHNICAL SERVICE
18142,x,GENERAL ATOMICS,CORP,3550 GENERAL ATOMICS CT,SAN DIEGO,92121-1122,CA,(858) 453-3000,GENERAL ATOMIC TECHNOLOGIES CORP,04/01/1983,5419,OTH PROFESSIONAL/SCIENTIFIC/TECHNICAL SERVICE
18087,x,GEEKPLUS AMERICA INC,CORP,3570 CARMEL MOUNTAIN RD SUITE 100,SAN DIEGO,92130-6767,CA,(858) 282-8087,GEEKPLUS AMERICA INC,01/09/2023,811219,OTHER ELECTRONIC & PRECISION EQUIPMENT R&M
11426,x,QUALCOMM EUROPE INC,CORP,5775 MOREHOUSE DR,SAN DIEGO,92121-1714,CA,(858) 587-1121,QUALCOMM EUROPE INC,02/05/2002,541,"PROFESSIONAL, SCIENTIFIC & TECHNICAL SERVICES"
11434,x,QUALCOMM INCORPORATED,CORP,9940 BARNES CANYON RD SUITE AM,SAN DIEGO,92121-2720,CA,(858) 587-1121,QUALCOMM INCORPORATED,12/17/2003,541,"PROFESSIONAL, SCIENTIFIC & TECHNICAL SERVICES"
11448,x,QUALCOMM INTERNATIONAL INC,CORP,5775 MOREHOUSE DR,SAN DIEGO,92121-1714,CA,(858) 587-1121,QUALCOMM INTERNATIONAL INC,02/05/2002,541,"PROFESSIONAL, SCIENTIFIC & TECHNICAL SERVICES"
14123,x,S SQUARE SYSTEMS INC,CORP,7345 ARROYO GRANDE RD,SAN DIEGO,92129-2261,CA,(858) 213-7063,S SQUARE SYSTEMS INC,03/09/2002,541,"PROFESSIONAL, SCIENTIFIC & TECHNICAL SERVICES"
23759,x,VEKTREX ELECTRONIC SYSTEMS INC,CORP,1660 LOGAN AVE SUITE B,SAN DIEGO,92113-1044,CA,(858) 558-8282,VEKTREX ELECTRONIC SYSTEMS INC,03/07/1986,541,"PROFESSIONAL, SCIENTIFIC & TECHNICAL SERVICES"
23792,x,VENTYX BIOSCIENCES INC,CORP,12790 EL CAMINO REAL SUITE 200,SAN DIEGO,92130-2008,CA,,VENTYX BIOSCIENCES INC,09/15/2023,541,"PROFESSIONAL, SCIENTIFIC & TECHNICAL SERVICES"
2472,x,ALLEGRO 3D INC,CORP,6868 NANCY RIDGE DR,SAN DIEGO,92121-2217,CA,(858) 699-3298,ALLEGRO 3D INC,04/11/2017,541,"PROFESSIONAL, SCIENTIFIC & TECHNICAL SERVICES"
6038,x,BEYOND ORDINARY SOFTWARE SOLUTIONS,CORP,16955 VIA DEL CAMPO SUITE 125,SAN DIEGO,92127-7720,CA,(858) 653-0157,ANDERSON CREATIVE ENTERPRISES INC,07/18/2000,541,"PROFESSIONAL, SCIENTIFIC & TECHNICAL SERVICES"
6269,x,BIZ BLOCK TECHNOLOGIES,CORP,5703 OBERLIN DR SUITE 107,SAN DIEGO,92121-1743,CA,(858) 246-6519,BIZ BLOCK CPA,03/13/2024,541,"PROFESSIONAL, SCIENTIFIC & TECHNICAL SERVICES"
6454,x,BLOOM SCIENCE INC.,CORP,11107 ROSELLE ST SUITE 209,SAN DIEGO,92121-1206,CA,(858) 829-6662,BLOOM SCIENCE INC,04/12/2022,541,"PROFESSIONAL, SCIENTIFIC & TECHNICAL SERVICES"
10343,x,COASTAL ANALYTICAL,CORP,6342 FERRIS SQ SUITE 2,SAN DIEGO,92121-3207,CA,(206) 522-5432,INSTITUTE FOR ENVIRONMENTAL HEALTH INC,01/06/2022,541,"PROFESSIONAL, SCIENTIFIC & TECHNICAL SERVICES"
11759,x,CUBIC CORP HEADQUATERS,CORP,9233 BALBOA AVE,SAN DIEGO,92123-1513,CA,(858) 277-6780,CUBIC CORPORATION,07/01/1974,541,"PROFESSIONAL, SCIENTIFIC & TECHNICAL SERVICES"
12817,x,"DEFINED BIOSCIENCE, INC",CORP,6404 NANCY RIDGE DR,SAN DIEGO,92121-2248,CA,(858) 232-3277,DEFINED BIOSCIENCE  INC,08/23/2022,541,"PROFESSIONAL, SCIENTIFIC & TECHNICAL SERVICES"
12818,x,DEFOREST TECH SOLUTIONS,CORP,1270 RIVER VISTA ROW SUITE 125,SAN DIEGO,92111-7432,CA,(619) 770-8098,DEFOREST TECH SOLUTIONS,05/04/2018,541,"PROFESSIONAL, SCIENTIFIC & TECHNICAL SERVICES"
12878,x,DEL REY SYSTEMS & TECHNOLOGY INC,CORP,9449 BALBOA AVE SUITE 311,SAN DIEGO,92123-4371,CA,(858) 874-8992,DEL REY SYSTEMS & TECHNOLOGY INC,07/19/1999,541,"PROFESSIONAL, SCIENTIFIC & TECHNICAL SERVICES"
13631,x,DOGBREATH SOFTWARE INC,CORP,6235 LUSK BLVD,SAN DIEGO,92121-2731,CA,(858) 558-3636,DOGBREATH SOFTWARE INC,11/17/2000,541,"PROFESSIONAL, SCIENTIFIC & TECHNICAL SERVICES"
17769,x,G2 SOFTWARE SYSTEMS INC,SCORP,4025 HANCOCK ST SUITE 105,SAN DIEGO,92110-5167,CA,(760) 632-8026,G2 SOFTWARE SYSTEMS INC,05/19/2010,541,"PROFESSIONAL, SCIENTIFIC & TECHNICAL SERVICES"
18143,x,GENERAL ATOMICS,CORP,16275 TECHNOLOGY DR,SAN DIEGO,92127-1815,CA,(858) 455-3000,GENERAL ATOMICS,09/27/2022,541,"PROFESSIONAL, SCIENTIFIC & TECHNICAL SERVICES"
18144,x,GENERAL ATOMICS,CORP,16510 VIA ESPRILLO,SAN DIEGO,92127-1708,CA,(858) 455-3000,GENERAL ATOMICS,09/27/2022,541,"PROFESSIONAL, SCIENTIFIC & TECHNICAL SERVICES"
18148,x,GENERAL DYNAMICS INFORMATION TECHNOLOGY INC,CORP,1200 PIPER RANCH RD,SAN DIEGO,92154-7714,CA,(619) 881-8989,GENERAL DYNAMICS CORP,09/01/1978,541,"PROFESSIONAL, SCIENTIFIC & TECHNICAL SERVICES"
22174,x,INTUIT INC,CORP,7535 TORREY SANTA FE RD,SAN DIEGO,92129-5704,CA,(858) 453-4446,INTUIT INC,09/25/1995,541,"PROFESSIONAL, SCIENTIFIC & TECHNICAL SERVICES"
11432,x,QUALCOMM INCORPORATED,CORP,9380 WAPLES ST,SAN DIEGO,92121,CA,(858) 658-3172,QUALCOMM INCORPORATED,04/22/1998,3344,SEMICONDUCTOR & OTH ELECTRONIC COMPONENT MFG
11433,x,QUALCOMM INCORPORATED,CORP,10555 SORRENTO VALLEY RD,SAN DIEGO,92121-1608,CA,(858) 658-3172,QUALCOMM INCORPORATED,04/22/1998,3344,SEMICONDUCTOR & OTH ELECTRONIC COMPONENT MFG
11441,x,QUALCOMM INCORPORATED,CORP,10185 MCKELLAR CT,SAN DIEGO,92121-4233,CA,(858) 651-0277,QUALCOMM INCORPORATED,09/11/1999,3344,SEMICONDUCTOR & OTH ELECTRONIC COMPONENT MFG
11445,x,QUALCOMM INCORPORATED,CORP,4243 CAMPUS POINT CT,SAN DIEGO,92121-1513,CA,(858) 658-3172,QUALCOMM INCORPORATED,04/22/1998,3344,SEMICONDUCTOR & OTH ELECTRONIC COMPONENT MFG
19672,x,SYNOPSYS INC,CORP,3580 CARMEL MOUNTAIN RD,SAN DIEGO,92130-6766,CA,(858) 546-4838,SYNOPSYS INC,03/28/1995,3344,SEMICONDUCTOR & OTH ELECTRONIC COMPONENT MFG
25406,x,WINTRISS ENGINEERING CORPORATION,CORP,9010 KENAMAR DR SUITE 101,SAN DIEGO,92121-3437,CA,(858) 550-7300,WINTRISS ENGINEERING CORPORATION,05/03/2018,3344,SEMICONDUCTOR & OTH ELECTRONIC COMPONENT MFG
11760,x,CUBIC DEFENSE APPLICATIONS INC,CORP,9233 BALBOA AVE,SAN DIEGO,92123-1513,CA,(858) 277-6780,CUBIC DEFENSE APPLICATIONS INC,07/01/1974,3344,SEMICONDUCTOR & OTH ELECTRONIC COMPONENT MFG
21981,x,INTEGRATED MICROWAVE CORP,SCORP,11353 SORRENTO VALLEY RD,SAN DIEGO,92121-1303,CA,(858) 259-2600,INTEGRATED MICROWAVE CORP,06/25/1982,3344,SEMICONDUCTOR & OTH ELECTRONIC COMPONENT MFG
1342,x,ACTIVX BIOSCIENCES INC,CORP,11025 N TORREY PINES RD SUITE 120,LA JOLLA,92037-1030,CA,(858) 558-5558,ACTIVX BIOSCIENCES INC,02/27/2001,54199,"ALL OTH PROF, SCIENTIFIC & TECHNICAL SERVICES"
9919,x,CIVIC KNOWLEDGE INC,SCORP,1370 WILBUR AVE,SAN DIEGO,92109-2135,CA,(619) 363-2607,CIVIC KNOWLEDGE INC,11/22/2016,54199,"ALL OTH PROF, SCIENTIFIC & TECHNICAL SERVICES"
20991,x,HOOP5 NETWORKS,CORP,2048 ALDERGROVE AVE SUITE F,ESCONDIDO,92029-1903,CA,(619) 259-5549,HOOP5 NETWORKS,10/26/2023,541514,IT SERVICES & SUPPORT
13489,x,ROCKSTAR CLINICAL DATA CONSULTING INC,SCORP,7472 NORTHRUP DR,SAN DIEGO,92126-5113,CA,(619) 733-0033,ROCKSTAR CLINICAL DATA CONSULTING INC,02/20/2024,5416,"MANAGEMENT, SCI & TECH CONSULTING SERVICES"
25338,x,WIND RIVER GROUP INC,CORP,7963 VILLAS,SAN DIEGO,92127-2511,CA,,WIND RIVER GROUP INC,05/16/2011,5416,"MANAGEMENT, SCI & TECH CONSULTING SERVICES"
6554,x,BLUE TECH,CORP,4025 HANCOCK ST SUITE 100,SAN DIEGO,92110-5167,CA,(858) 456-1440,BLUE TECH INC,11/28/1984,5416,"MANAGEMENT, SCI & TECH CONSULTING SERVICES"
15628,x,SCIENCE APPLICATIONS INTERNATIONAL CORPORATION,CORP,4065 HANCOCK ST,SAN DIEGO,92110-5151,CA,(317) 596-3260,SCIENCE APPLICATIONS INTERNATIONAL CORPORATION,07/26/2017,5419,OTH PROFESSIONAL/SCIENTIFIC/TECHNICAL SERVICE
17011,x,SIMPLETECH IT SOLUTIONS INC,SCORP,4550 KEARNY VILLA RD SUITE 208,SAN DIEGO,92123-1565,CA,(408) 780-0900,SIMPLETECH IT SOLUTIONS INC,12/12/2023,5419,OTH PROFESSIONAL/SCIENTIFIC/TECHNICAL SERVICE
17645,x,SOLIMAR SYSTEMS INC,CORP,1515 02ND AVE,SAN DIEGO,92101-3005,CA,(619) 849-2800,SOLIMAR SYSTEMS INC,07/24/1991,5419,OTH PROFESSIONAL/SCIENTIFIC/TECHNICAL SERVICE
8989,x,CELL BIOLABS INC,CORP,7758 ARJONS DR,SAN DIEGO,92126-4391,CA,(858) 625-0769,JAY LENG,08/13/2004,5419,OTH PROFESSIONAL/SCIENTIFIC/TECHNICAL SERVICE
13323,x,DIEBOLD NIXDORF INCORPORATED,CORP,7370 OPPORTUNITY RD SUITE M,SAN DIEGO,92111-2245,CA,(858) 565-7643,DIEBOLD NIXDORF INCORPORATED,11/15/1994,5419,OTH PROFESSIONAL/SCIENTIFIC/TECHNICAL SERVICE
21789,x,INFOTECH SYSTEMS MANAGEMENT INC.,CORP,1748 SAN DIEGO AVE,SAN DIEGO,92110-1906,CA,(619) 299-1130,INFOTECH SYSTEMS MANAGEMENT INC,08/18/1992,5419,OTH PROFESSIONAL/SCIENTIFIC/TECHNICAL SERVICE
19419,x,SURFACE OPTICS CORPORATION,CORP,11555 RANCHO BERNARDO RD,SAN DIEGO,92127-1441,CA,(858) 578-8910,SURFACE OPTICS CORPORATION,03/24/1981,541,"PROFESSIONAL, SCIENTIFIC & TECHNICAL SERVICES"
21850,x,INNOLINK,CORP,5214 SEAGROVE PL,SAN DIEGO,92130-3231,CA,(858) 587-9196,IQNET INC,03/05/1999,541,"PROFESSIONAL, SCIENTIFIC & TECHNICAL SERVICES"
25478,x,KING TECHNOLOGIES INC,CORP,3760 SPORTS ARENA BLVD,SAN DIEGO,92110-5156,CA,,KING TECHNOLOGIES INC,12/22/2006,541,"PROFESSIONAL, SCIENTIFIC & TECHNICAL SERVICES"
23566,x,VALHALLA SCIENTIFIC INC,CORP,12127 KIRKHAM RD,POWAY,92064-6870,CA,(858) 457-5576,VALHALLA SCIENTIFIC INC,07/01/1974,3344,SEMICONDUCTOR & OTH ELECTRONIC COMPONENT MFG
25921,x,KYOCERA INTERNATIONAL INC,CORP,8611 BALBOA AVE,SAN DIEGO,92123-1501,CA,(858) 576-2600,KYOCERA INTERNATIONAL INC,07/01/1974,3344,SEMICONDUCTOR & OTH ELECTRONIC COMPONENT MFG